start=new Date('2021-12-31T00:00:00.000Z').valueOf();
sats=[{"EPHEMERIS_TYPE":"0","ECCENTRICITY":"0.00047900","MEAN_ELEMENT_THEORY":"SGP4","CLASSIFICATION_TYPE":"U","INCLINATION":"53.0475","SEMIMAJOR_AXIS":"6717.927","OBJECT_NAME":"STARLINK-1952","OBJECT_ID":"2021-005A","RA_OF_ASC_NODE":"38.3691","REF_FRAME":"TEME","ELEMENT_SET_NO":"999","SITE":"AFETR","TLE_LINE2":"2 47349  53.0475  38.3691 0004790  13.3647 346.7498 15.76702687 53151","OBJECT_TYPE":"PAYLOAD","CENTER_NAME":"EARTH","COUNTRY_CODE":"US","PERIOD":"91.330","MEAN_MOTION":"15.76702687","DECAY_DATE":null,"TLE_LINE1":"1 47349U 21005A   21364.59387780 -.00009962  00000-0 -56912-4 0  9993","TIME_SYSTEM":"UTC","EPOCH":"2021-12-30T14:15:11.041920","NORAD_CAT_ID":"47349","ARG_OF_PERICENTER":"13.3647","MEAN_MOTION_DDOT":"0.0000000000000","GP_ID":"192793402","MEAN_ANOMALY":"346.7498","FILE":"3255240","LAUNCH_DATE":"2021-01-20","APOAPSIS":"343.010","BSTAR":"-0.00005691200000","MEAN_MOTION_DOT":"-0.00009962","PERIAPSIS":"336.574","REV_AT_EPOCH":"5315","RCS_SIZE":"LARGE"},{"SITE":"AFETR","TLE_LINE2":"2 47350  53.0487  90.2042 0001310  85.6908 274.4230 15.06390382 52439","OBJECT_TYPE":"PAYLOAD","ELEMENT_SET_NO":"999","REF_FRAME":"TEME","RA_OF_ASC_NODE":"90.2042","OBJECT_ID":"2021-005B","OBJECT_NAME":"STARLINK-2011","INCLINATION":"53.0487","SEMIMAJOR_AXIS":"6925.378","CLASSIFICATION_TYPE":"U","ECCENTRICITY":"0.00013100","MEAN_ELEMENT_THEORY":"SGP4","EPHEMERIS_TYPE":"0","REV_AT_EPOCH":"5243","RCS_SIZE":"LARGE","BSTAR":"0.00001297800000","MEAN_MOTION_DOT":"-0.00000088","PERIAPSIS":"546.336","LAUNCH_DATE":"2021-01-20","APOAPSIS":"548.150","MEAN_ANOMALY":"274.4230","FILE":"3255240","ARG_OF_PERICENTER":"85.6908","MEAN_MOTION_DDOT":"0.0000000000000","GP_ID":"192794152","EPOCH":"2021-12-30T15:49:06.733344","NORAD_CAT_ID":"47350","TLE_LINE1":"1 47350U 21005B   21364.65910571 -.00000088  00000-0  12978-4 0  9995","TIME_SYSTEM":"UTC","DECAY_DATE":null,"CENTER_NAME":"EARTH","COUNTRY_CODE":"US","PERIOD":"95.593","MEAN_MOTION":"15.06390382"},{"TLE_LINE2":"2 47351  53.0546  50.3483 0001652  91.5644 268.5535 15.06391073 52984","OBJECT_TYPE":"PAYLOAD","SITE":"AFETR","RA_OF_ASC_NODE":"50.3483","REF_FRAME":"TEME","ELEMENT_SET_NO":"999","OBJECT_NAME":"STARLINK-2017","OBJECT_ID":"2021-005C","CLASSIFICATION_TYPE":"U","SEMIMAJOR_AXIS":"6925.376","INCLINATION":"53.0546","EPHEMERIS_TYPE":"0","MEAN_ELEMENT_THEORY":"SGP4","ECCENTRICITY":"0.00016520","MEAN_MOTION_DOT":"-0.00001158","PERIAPSIS":"546.097","BSTAR":"-0.00005884700000","RCS_SIZE":"LARGE","REV_AT_EPOCH":"5298","FILE":"3255240","MEAN_ANOMALY":"268.5535","APOAPSIS":"548.385","LAUNCH_DATE":"2021-01-20","NORAD_CAT_ID":"47351","EPOCH":"2021-12-30T14:56:02.207328","MEAN_MOTION_DDOT":"0.0000000000000","GP_ID":"192794404","ARG_OF_PERICENTER":"91.5644","DECAY_DATE":null,"TLE_LINE1":"1 47351U 21005C   21364.62224777 -.00001158  00000-0 -58847-4 0  9994","TIME_SYSTEM":"UTC","MEAN_MOTION":"15.06391073","COUNTRY_CODE":"US","CENTER_NAME":"EARTH","PERIOD":"95.593"},{"APOAPSIS":"548.216","LAUNCH_DATE":"2021-01-20","FILE":"3255240","MEAN_ANOMALY":"281.2280","RCS_SIZE":"LARGE","REV_AT_EPOCH":"5242","PERIAPSIS":"546.281","MEAN_MOTION_DOT":"-0.00001760","BSTAR":"-0.00009935000000","MEAN_MOTION":"15.06388490","COUNTRY_CODE":"US","PERIOD":"95.593","CENTER_NAME":"EARTH","TLE_LINE1":"1 47352U 21005D   21364.64067655 -.00001760  00000-0 -99350-4 0  9990","TIME_SYSTEM":"UTC","DECAY_DATE":null,"MEAN_MOTION_DDOT":"0.0000000000000","GP_ID":"192795154","ARG_OF_PERICENTER":"78.8866","NORAD_CAT_ID":"47352","EPOCH":"2021-12-30T15:22:34.453920","OBJECT_ID":"2021-005D","OBJECT_NAME":"STARLINK-2034","REF_FRAME":"TEME","ELEMENT_SET_NO":"999","RA_OF_ASC_NODE":"90.2735","OBJECT_TYPE":"PAYLOAD","TLE_LINE2":"2 47352  53.0545  90.2735 0001397  78.8866 281.2280 15.06388490 52424","SITE":"AFETR","MEAN_ELEMENT_THEORY":"SGP4","ECCENTRICITY":"0.00013970","EPHEMERIS_TYPE":"0","SEMIMAJOR_AXIS":"6925.384","INCLINATION":"53.0545","CLASSIFICATION_TYPE":"U"},{"EPOCH":"2021-12-30T14:18:13.199040","NORAD_CAT_ID":"47353","ARG_OF_PERICENTER":"66.1642","GP_ID":"192793902","MEAN_MOTION_DDOT":"0.0000000000000","PERIOD":"95.593","COUNTRY_CODE":"US","CENTER_NAME":"EARTH","MEAN_MOTION":"15.06386925","DECAY_DATE":null,"TIME_SYSTEM":"UTC","TLE_LINE1":"1 47353U 21005E   21364.59598610 -.00000769  00000-0 -32738-4 0  9990","MEAN_ANOMALY":"293.9494","FILE":"3255240","LAUNCH_DATE":"2021-01-20","APOAPSIS":"548.225","BSTAR":"-0.00003273800000","PERIAPSIS":"546.282","MEAN_MOTION_DOT":"-0.00000769","REV_AT_EPOCH":"5319","RCS_SIZE":"LARGE","CLASSIFICATION_TYPE":"U","INCLINATION":"53.0557","SEMIMAJOR_AXIS":"6925.389","EPHEMERIS_TYPE":"0","ECCENTRICITY":"0.00014030","MEAN_ELEMENT_THEORY":"SGP4","SITE":"AFETR","OBJECT_TYPE":"PAYLOAD","TLE_LINE2":"2 47353  53.0557  35.4684 0001403  66.1642 293.9494 15.06386925 53195","OBJECT_NAME":"STARLINK-2045","OBJECT_ID":"2021-005E","RA_OF_ASC_NODE":"35.4684","ELEMENT_SET_NO":"999","REF_FRAME":"TEME"},{"SITE":"AFETR","TLE_LINE2":"2 47354  53.0555  56.3227 0001407  85.9207 274.1943 15.06399415 52882","OBJECT_TYPE":"PAYLOAD","OBJECT_NAME":"STARLINK-2046","OBJECT_ID":"2021-005F","RA_OF_ASC_NODE":"56.3227","ELEMENT_SET_NO":"999","REF_FRAME":"TEME","CLASSIFICATION_TYPE":"U","INCLINATION":"53.0555","SEMIMAJOR_AXIS":"6925.350","EPHEMERIS_TYPE":"0","ECCENTRICITY":"0.00014070","MEAN_ELEMENT_THEORY":"SGP4","MEAN_ANOMALY":"274.1943","FILE":"3255239","LAUNCH_DATE":"2021-01-20","APOAPSIS":"548.190","BSTAR":"0.00007636500000","PERIAPSIS":"546.241","MEAN_MOTION_DOT":"0.00000856","REV_AT_EPOCH":"5288","RCS_SIZE":"LARGE","EPOCH":"2021-12-30T09:50:10.392864","NORAD_CAT_ID":"47354","ARG_OF_PERICENTER":"85.9207","MEAN_MOTION_DDOT":"0.0000000000000","GP_ID":"192770204","PERIOD":"95.592","COUNTRY_CODE":"US","CENTER_NAME":"EARTH","MEAN_MOTION":"15.06399415","DECAY_DATE":null,"TLE_LINE1":"1 47354U 21005F   21364.40984251  .00000856  00000-0  76365-4 0  9990","TIME_SYSTEM":"UTC"},{"OBJECT_ID":"2021-005G","OBJECT_NAME":"STARLINK-2047","REF_FRAME":"TEME","ELEMENT_SET_NO":"999","RA_OF_ASC_NODE":"40.4664","OBJECT_TYPE":"PAYLOAD","TLE_LINE2":"2 47355  53.0489  40.4664 0001953  50.6408 309.4753 15.06391361 53127","SITE":"AFETR","MEAN_ELEMENT_THEORY":"SGP4","ECCENTRICITY":"0.00019530","EPHEMERIS_TYPE":"0","SEMIMAJOR_AXIS":"6925.375","INCLINATION":"53.0489","CLASSIFICATION_TYPE":"U","APOAPSIS":"548.593","LAUNCH_DATE":"2021-01-20","FILE":"3255240","MEAN_ANOMALY":"309.4753","RCS_SIZE":"LARGE","REV_AT_EPOCH":"5312","MEAN_MOTION_DOT":"-0.00000525","PERIAPSIS":"545.888","BSTAR":"-0.00001632700000","MEAN_MOTION":"15.06391361","COUNTRY_CODE":"US","PERIOD":"95.593","CENTER_NAME":"EARTH","TIME_SYSTEM":"UTC","TLE_LINE1":"1 47355U 21005G   21364.63054337 -.00000525  00000-0 -16327-4 0  9996","DECAY_DATE":null,"GP_ID":"192794904","MEAN_MOTION_DDOT":"0.0000000000000","ARG_OF_PERICENTER":"50.6408","NORAD_CAT_ID":"47355","EPOCH":"2021-12-30T15:07:58.947168"},{"MEAN_MOTION_DOT":"-0.00000200","PERIAPSIS":"546.273","BSTAR":"0.00000544280000","RCS_SIZE":"LARGE","REV_AT_EPOCH":"5283","FILE":"3255239","MEAN_ANOMALY":"276.8605","APOAPSIS":"548.166","LAUNCH_DATE":"2021-01-20","NORAD_CAT_ID":"47356","EPOCH":"2021-12-30T13:03:14.413248","GP_ID":"192768703","MEAN_MOTION_DDOT":"0.0000000000000","ARG_OF_PERICENTER":"83.2540","DECAY_DATE":null,"TIME_SYSTEM":"UTC","TLE_LINE1":"1 47356U 21005H   21364.54391682 -.00000200  00000-0  54428-5 0  9998","MEAN_MOTION":"15.06398070","CENTER_NAME":"EARTH","COUNTRY_CODE":"US","PERIOD":"95.592","TLE_LINE2":"2 47356  53.0554  60.7182 0001367  83.2540 276.8605 15.06398070 52833","OBJECT_TYPE":"PAYLOAD","SITE":"AFETR","RA_OF_ASC_NODE":"60.7182","ELEMENT_SET_NO":"999","REF_FRAME":"TEME","OBJECT_NAME":"STARLINK-2049","OBJECT_ID":"2021-005H","CLASSIFICATION_TYPE":"U","SEMIMAJOR_AXIS":"6925.354","INCLINATION":"53.0554","EPHEMERIS_TYPE":"0","MEAN_ELEMENT_THEORY":"SGP4","ECCENTRICITY":"0.00013670"},{"LAUNCH_DATE":"2021-01-20","APOAPSIS":"548.076","MEAN_ANOMALY":"270.5331","FILE":"3255240","REV_AT_EPOCH":"5242","RCS_SIZE":"LARGE","BSTAR":"0.00000524310000","PERIAPSIS":"546.428","MEAN_MOTION_DOT":"-0.00000203","ARG_OF_PERICENTER":"89.5794","GP_ID":"192793403","MEAN_MOTION_DDOT":"0.0000000000000","EPOCH":"2021-12-30T14:50:43.888128","NORAD_CAT_ID":"47357","COUNTRY_CODE":"US","CENTER_NAME":"EARTH","PERIOD":"95.593","MEAN_MOTION":"15.06387402","TIME_SYSTEM":"UTC","TLE_LINE1":"1 47357U 21005J   21364.61856352 -.00000203  00000-0  52431-5 0  9992","DECAY_DATE":null,"SITE":"AFETR","OBJECT_TYPE":"PAYLOAD","TLE_LINE2":"2 47357  53.0530  90.3755 0001190  89.5794 270.5331 15.06387402 52426","OBJECT_ID":"2021-005J","OBJECT_NAME":"STARLINK-2050","ELEMENT_SET_NO":"999","REF_FRAME":"TEME","RA_OF_ASC_NODE":"90.3755","INCLINATION":"53.0530","SEMIMAJOR_AXIS":"6925.387","CLASSIFICATION_TYPE":"U","ECCENTRICITY":"0.00011900","MEAN_ELEMENT_THEORY":"SGP4","EPHEMERIS_TYPE":"0"},{"INCLINATION":"53.0553","SEMIMAJOR_AXIS":"6925.362","CLASSIFICATION_TYPE":"U","ECCENTRICITY":"0.00013360","MEAN_ELEMENT_THEORY":"SGP4","EPHEMERIS_TYPE":"0","SITE":"AFETR","TLE_LINE2":"2 47358  53.0553  60.6589 0001336  90.7726 269.3416 15.06395509 52830","OBJECT_TYPE":"PAYLOAD","OBJECT_ID":"2021-005K","OBJECT_NAME":"STARLINK-2055","REF_FRAME":"TEME","ELEMENT_SET_NO":"999","RA_OF_ASC_NODE":"60.6589","ARG_OF_PERICENTER":"90.7726","MEAN_MOTION_DDOT":"0.0000000000000","GP_ID":"192769705","EPOCH":"2021-12-30T13:19:09.721632","NORAD_CAT_ID":"47358","COUNTRY_CODE":"US","CENTER_NAME":"EARTH","PERIOD":"95.592","MEAN_MOTION":"15.06395509","TIME_SYSTEM":"UTC","TLE_LINE1":"1 47358U 21005K   21364.55497363  .00000003  00000-0  19097-4 0  9996","DECAY_DATE":null,"LAUNCH_DATE":"2021-01-20","APOAPSIS":"548.153","MEAN_ANOMALY":"269.3416","FILE":"3255239","REV_AT_EPOCH":"5283","RCS_SIZE":"LARGE","BSTAR":"0.00001909700000","PERIAPSIS":"546.302","MEAN_MOTION_DOT":"0.00000003"}];
